{"type": "FeatureCollection", "features": [{"type": "Feature", "properties": {"filename": "IMG_0026_2_copy_7.jpg", "prediction": "100.00%", "classification": "THIS PICTURE HAS Oak Wilt", "latitude": 45.35133723305556, "longitude": -93.0304473111111}, "geometry": {"type": "Point", "coordinates": [-93.0304473111111, 45.35133723305556]}}, {"type": "Feature", "properties": {"filename": "IMG_0026_2_copy_8.jpg", "prediction": "100.00%", "classification": "THIS PICTURE HAS Oak Wilt", "latitude": 45.35133723305556, "longitude": -93.0304473111111}, "geometry": {"type": "Point", "coordinates": [-93.0304473111111, 45.35133723305556]}}, {"type": "Feature", "properties": {"filename": "IMG_0026_2_copy_9.jpg", "prediction": "100.00%", "classification": "THIS PICTURE HAS Oak Wilt", "latitude": 45.35133723305556, "longitude": -93.0304473111111}, "geometry": {"type": "Point", "coordinates": [-93.0304473111111, 45.35133723305556]}}, {"type": "Feature", "properties": {"filename": "IMG_0026_2_copy_12.jpg", "prediction": "100.00%", "classification": "THIS PICTURE HAS Oak Wilt", "latitude": 45.35133723305556, "longitude": -93.0304473111111}, "geometry": {"type": "Point", "coordinates": [-93.0304473111111, 45.35133723305556]}}, {"type": "Feature", "properties": {"filename": "IMG_0026_2_copy_13.jpg", "prediction": "100.00%", "classification": "THIS PICTURE HAS Oak Wilt", "latitude": 45.35133723305556, "longitude": -93.0304473111111}, "geometry": {"type": "Point", "coordinates": [-93.0304473111111, 45.35133723305556]}}, {"type": "Feature", "properties": {"filename": "IMG_0026_2_copy_14.jpg", "prediction": "100.00%", "classification": "THIS PICTURE HAS Oak Wilt", "latitude": 45.35133723305556, "longitude": -93.0304473111111}, "geometry": {"type": "Point", "coordinates": [-93.0304473111111, 45.35133723305556]}}]}